{
    "links": {
        "self": "http://www.neowsapp.com/rest/v1/neo/3780701?api_key=iIulBulltgU6a56xZRHN4H3l9WmuAYTsLGpBGhQ2"
    },
    "id": "3780701",
    "neo_reference_id": "3780701",
    "name": "(2017 QP)",
    "designation": "2017 QP",
    "nasa_jpl_url": "http://ssd.jpl.nasa.gov/sbdb.cgi?sstr=3780701",
    "absolute_magnitude_h": 23.6,
    "estimated_diameter": {
        "kilometers": {
            "estimated_diameter_min": 0.0506471459,
            "estimated_diameter_max": 0.1132504611
        },
        "meters": {
            "estimated_diameter_min": 50.6471458835,
            "estimated_diameter_max": 113.2504610618
        },
        "miles": {
            "estimated_diameter_min": 0.0314706677,
            "estimated_diameter_max": 0.0703705522
        },
        "feet": {
            "estimated_diameter_min": 166.1651821003,
            "estimated_diameter_max": 371.5566426699
        }
    },
    "is_potentially_hazardous_asteroid": false,
    "close_approach_data": [
        {
            "close_approach_date": "2017-07-30",
            "close_approach_date_full": "2017-Jul-30 06:38",
            "epoch_date_close_approach": 1501396680000,
            "relative_velocity": {
                "kilometers_per_second": "3.7517817817",
                "kilometers_per_hour": "13506.4144140954",
                "miles_per_hour": "8392.3606674695"
            },
            "miss_distance": {
                "astronomical": "0.2462501442",
                "lunar": "95.7913060938",
                "kilometers": "36838497.059512854",
                "miles": "22890380.6317272252"
            },
            "orbiting_body": "Earth"
        }
    ],
    "orbital_data": {
        "orbit_id": "1",
        "orbit_determination_date": "2017-08-18 15:42:06",
        "first_observation_date": "2017-08-16",
        "last_observation_date": "2017-08-18",
        "data_arc_in_days": 2,
        "observations_used": 13,
        "orbit_uncertainty": "9",
        "minimum_orbit_intersection": ".24586",
        "jupiter_tisserand_invariant": "3.638",
        "epoch_osculation": "2457982.5",
        "eccentricity": ".3991382311395798",
        "semi_major_axis": "2.098072421871856",
        "inclination": "5.960198426143216",
        "ascending_node_longitude": "132.8955212004818",
        "orbital_period": "1110.015746598045",
        "perihelion_distance": "1.260651506603189",
        "perihelion_argument": "175.3317052065016",
        "aphelion_distance": "2.935493337140522",
        "perihelion_time": "2457966.933365822267",
        "mean_anomaly": "5.048566492105066",
        "mean_motion": ".3243197234843929",
        "equinox": "J2000",
        "orbit_class": {
            "orbit_class_type": "AMO",
            "orbit_class_description": "Near-Earth asteroid orbits similar to that of 1221 Amor",
            "orbit_class_range": "1.017 AU < q (perihelion) < 1.3 AU"
        }
    },
    "is_sentry_object": false
}